OBJECT_NAME,OBJECT_ID,EPOCH,MEAN_MOTION,ECCENTRICITY,INCLINATION,RA_OF_ASC_NODE,ARG_OF_PERICENTER,MEAN_ANOMALY,EPHEMERIS_TYPE,CLASSIFICATION_TYPE,NORAD_CAT_ID,ELEMENT_SET_NO,REV_AT_EPOCH,BSTAR,MEAN_MOTION_DOT,MEAN_MOTION_DDOT
EYESAT A (AO-27),1993-061C,2026-07-02T14:13:44.069088,14.30946419,.0009336,98.6875,251.0004,59.8657,300.3450,0,U,22825,999,70920,.67579E-4,.133E-5,0
ITAMSAT (IO-26),1993-061D,2026-07-02T15:18:07.680960,14.31373734,.00096421,98.6822,250.9642,44.3148,315.8806,0,U,22826,999,70952,.66678291E-4,.132E-5,0
RADIO ROSTO (RS15),1994-085A,2026-07-02T19:32:05.316288,11.27583443,.01564711,64.8178,277.9441,0.9878,359.1328,0,U,23439,999,29766,.6043903E-3,-.21E-6,0
JAS-2 (FO-29),1996-046B,2026-07-02T20:05:29.863680,13.53274951,.03507817,98.5226,30.5644,55.9383,307.4537,0,U,24278,999,47528,.5756101E-5,-.28E-6,0
FORTE,1997-047A,2026-07-02T20:32:28.460544,14.27951550,.00246005,69.9544,338.6284,258.4099,101.4262,0,U,24920,999,50092,.10898147E-3,.213E-5,0
TECHSAT 1B (GO-32),1998-043D,2026-07-02T20:51:25.837056,14.24431396,.00017802,99.0074,177.0235,134.6871,225.4453,0,U,25397,999,45356,.42976734E-4,.53E-6,0
ISS (ZARYA),1998-067A,2026-07-01T12:11:46.289760,15.49503254,.00042241,51.6311,229.1989,255.0896,104.9625,0,U,25544,999,57397,.11826728E-3,.6185E-4,0
IMAGE,2000-017A,2026-06-30T21:52:49.688544,1.68666270,.7422471,94.2398,315.5527,286.2504,9.4555,0,U,26113,999,16173,0,-.33E-6,0
CLUSTER II-FM7 (SAMBA),2000-041A,2026-07-02T18:10:50.311200,0.44834504,.90728696,149.8840,53.4423,270.8480,359.6360,0,U,26410,999,2037,0,.12787E-3,0
CLUSTER II-FM8 (TANGO),2000-045B,2026-06-30T22:42:15.480864,0.44420098,.90747877,150.1096,54.2616,271.4997,2.3331,0,U,26464,999,2037,0,.15784E-3,0
ODIN,2001-007A,2026-07-02T08:54:37.707264,15.82090808,.0005921,97.3774,225.3490,136.8623,223.3110,0,U,26702,999,39179,.12669E-2,.265335E-2,0
OMNI-M1,2001-026A,2026-07-02T00:09:17.717184,3.92402003,.00137998,44.8270,241.8483,56.1769,304.0224,0,U,26857,999,20615,0,.7E-7,0
PCSAT (NO-44),2001-043C,2026-07-02T10:55:49.024128,14.31961164,.0006018,67.0489,204.7811,265.5934,94.4481,0,U,26931,999,29263,.69838E-4,.104E-5,0
PROBA-1,2001-049B,2026-07-03T15:56:16.448928,15.07566074,.00564762,97.9593,193.7726,67.8438,292.8769,0,U,26958,999,34610,.90190768E-4,.135E-4,0
SAUDISAT 1C (SO-50),2002-058C,2026-07-02T20:48:17.317440,14.83079029,.00748787,64.5520,80.4726,259.5465,99.7197,0,U,27607,999,26678,.12864716E-3,.945E-5,0
CORIOLIS,2003-001A,2026-07-02T21:51:39.268224,14.19949084,.00142935,98.7127,190.5557,162.9872,197.1786,0,U,27640,999,21645,.7306909E-4,.112E-5,0
CUTE-1 (CO-55),2003-031E,2026-07-02T20:13:49.342944,14.24345535,.0010444,98.6736,192.2049,134.8646,225.3383,0,U,27844,999,19390,.16429785E-3,.336E-5,0
CUBESAT XI-IV (CO-57),2003-031J,2026-07-02T18:27:18.924192,14.23629228,.00099897,98.6769,191.8320,152.4134,207.7577,0,U,27848,999,19359,.14165898E-3,.279E-5,0
MOZHAETS 4 (RS22),2003-042A,2026-07-03T15:30:38.167776,14.73497913,.00103758,98.3468,9.4700,211.3207,213.2425,0,U,27939,999,21797,.1979695E-3,.1233E-4,0
